H1 CPF  1  SGF 2022  1  2  2  5021 larets    
H2  0304206 5557    27944 2022  1  1  0  0  0 2022  1  6 23 57  0   180 1 1  0 0 0
H9
10 0 59583  47520.00000  0   3743093.173   1664512.400   5736708.045
10 0 59583  47700.00000  0   4802983.089   1701655.598   4875347.108
10 0 59583  47880.00000  0   5687520.926   1651208.630   3834869.354
10 0 59583  48060.00000  0   6362283.346   1520080.669   2653532.350
10 0 59583  48240.00000  0   6800801.281   1318935.073   1374772.747
10 0 59583  48420.00000  0   6985638.869   1061572.751     45575.670
10 0 59583  48600.00000  0   6909101.438    764172.363  -1285301.691
10 0 59583  48780.00000  0   6573533.664    444425.453  -2569171.607
10 0 59583  48960.00000  0   5991197.643    120613.309  -3759232.872
10 0 59583  49140.00000  0   5183748.919   -189321.999  -4812287.357
10 0 59583  49320.00000  0   4181343.510   -468664.876  -5690282.968
10 0 59583  49500.00000  0   3021439.326   -702728.735  -6361628.733
10 0 59583  49680.00000  0   1747352.700   -879542.763  -6802255.537
10 0 59583  49860.00000  0    406632.946   -990395.028  -6996398.047
10 0 59583  50040.00000  0   -950683.977  -1030216.659  -6937097.866
10 0 59583  50220.00000  0  -2273892.414   -997794.542  -6626425.355
10 0 59583  50400.00000  0  -3513456.042   -895808.297  -6075419.301
10 0 59583  50580.00000  0  -4622817.486   -730690.185  -5303746.324
10 0 59583  50760.00000  0  -5560138.423   -512311.615  -4339080.979
10 0 59583  50940.00000  0  -6289908.689   -253504.350  -3216200.089
10 0 59583  51120.00000  0  -6784361.023     30569.735  -1975801.651
10 0 59583  51300.00000  0  -7024619.898    323177.223   -663071.124
10 0 59583  51480.00000  0  -7001516.644    606867.455    673966.158
10 0 59583  51660.00000  0  -6716007.555    864378.668   1986237.287
10 0 59583  51840.00000  0  -6179174.216   1079548.217   3225477.448
10 0 59583  52020.00000  0  -5411792.265   1238177.608   4346069.835
10 0 59583  52200.00000  0  -4443487.240   1328804.019   5306775.412
10 0 59583  52380.00000  0  -3311532.003   1343337.626   6072275.211
10 0 59583  52560.00000  0  -2059351.098   1277534.175   6614472.587
10 0 59583  52740.00000  0   -734795.670   1131282.316   6913511.509
10 0 59583  52920.00000  0    611729.183    908692.226   6958474.607
10 0 59583  53100.00000  0   1929205.055    617983.208   6747758.622
10 0 59583  53280.00000  0   3167948.247    271175.662   6289125.202
10 0 59583  53460.00000  0   4281503.539   -116403.498   5599425.191
10 0 59583  53640.00000  0   5228418.258   -526785.682   4703996.738
10 0 59583  53820.00000  0   5973829.013   -940170.234   3635750.947
10 0 59583  54000.00000  0   6490799.323  -1335845.118   2433967.109
10 0 59583  54180.00000  0   6761343.199  -1693176.183   1142830.500
10 0 59583  54360.00000  0   6777080.876  -1992615.539   -190228.913
10 0 59583  54540.00000  0   6539494.373  -2216680.191  -1516330.382
10 0 59583  54720.00000  0   6059765.048  -2350844.333  -2786987.022
10 0 59583  54900.00000  0   5358208.922  -2384300.371  -3955912.179
10 0 59583  55080.00000  0   4463352.278  -2310551.591  -4980707.045
10 0 59583  55260.00000  0   3410705.383  -2127813.331  -5824368.153
10 0 59583  55440.00000  0   2241299.230  -1839207.946  -6456559.882
10 0 59583  55620.00000  0   1000066.660  -1452750.111  -6854625.847
10 0 59583  55800.00000  0   -265874.651   -981127.201  -7004325.642
10 0 59583  55980.00000  0  -1508973.400   -441287.108  -6900286.129
10 0 59583  56160.00000  0  -2682979.320    146154.807  -6546173.148
10 0 59583  56340.00000  0  -3744615.215    757675.676  -5954580.366
10 0 59583  56520.00000  0  -4655143.215   1367750.855  -5146641.117
10 0 59583  56700.00000  0  -5381787.557   1949882.317  -4151358.068
10 0 59583  56880.00000  0  -5898960.240   2477721.047  -3004647.149
10 0 59583  57060.00000  0  -6189232.872   2926234.163  -1748108.146
10 0 59583  57240.00000  0  -6244006.761   3272866.859   -427550.938
10 0 59583  57420.00000  0  -6063834.026   3498641.801    908679.996
10 0 59583  57600.00000  0  -5658357.335   3589131.755   2211517.475
10 0 59583  57780.00000  0  -5045859.151   3535250.281   3433033.234
10 0 59583  57960.00000  0  -4252446.354   3333814.727   4528261.434
10 0 59583  58140.00000  0  -3310911.222   2987849.167   5456900.935
10 0 59583  58320.00000  0  -2259333.099   2506615.556   6184821.494
10 0 59583  58500.00000  0  -1139488.111   1905372.727   6685318.780
10 0 59583  58680.00000  0      4853.603   1204873.751   6940071.668
10 0 59583  58860.00000  0   1129662.674    430628.122   6939784.553
10 0 59583  59040.00000  0   2192359.070   -388042.833   6684508.278
10 0 59583  59220.00000  0   3153436.225  -1219126.660   6183634.690
10 0 59583  59400.00000  0   3977949.142  -2029180.856   5455563.782
10 0 59583  59580.00000  0   4636814.202  -2784689.505   4527044.883
10 0 59583  59760.00000  0   5107869.633  -3453464.015   3432209.780
10 0 59583  59940.00000  0   5376657.059  -4006031.337   2211318.913
10 0 59583  60120.00000  0   5436879.978  -4416939.972    909257.151
10 0 59583  60300.00000  0   5290515.434  -4665919.932   -426156.506
10 0 59583  60480.00000  0   4947576.583  -4738836.477  -1745975.811
10 0 59583  60660.00000  0   4425537.628  -4628385.874  -3001970.526
10 0 59583  60840.00000  0   3748455.658  -4334500.097  -4148418.471
10 0 59583  61020.00000  0   2945844.016  -3864446.825  -5143768.658
10 0 59583  61200.00000  0   2051360.291  -3232628.306  -5952109.898
10 0 59583  61380.00000  0   1101382.089  -2460102.491  -6544396.333
10 0 59583  61560.00000  0    133534.990  -1573855.599  -6899413.701
10 0 59583  61740.00000  0   -814773.804   -605849.920  -7004464.998
10 0 59583  61920.00000  0  -1707760.771    408111.735  -6855770.495
10 0 59583  62100.00000  0  -2512575.623   1429671.462  -6458588.398
10 0 59583  62280.00000  0  -3200478.630   2419320.670  -5827056.138
10 0 59583  62460.00000  0  -3747857.698   3337889.217  -4983754.239
10 0 59583  62640.00000  0  -4137058.791   4148079.896  -3958984.640
10 0 59583  62820.00000  0  -4356990.486   4815990.904  -2789760.842
10 0 59583  63000.00000  0  -4403471.246   5312561.972  -1518533.481
10 0 59583  63180.00000  0  -4279303.676   5614877.979   -191680.389
10 0 59583  63360.00000  0  -3994057.115   5707259.030   1142196.651
10 0 59583  63540.00000  0  -3563558.703   5582066.900   2434096.746
10 0 59583  63720.00000  0  -3009112.084   5240176.594   3636486.295
10 0 59583  63900.00000  0  -2356480.426   4691079.945   4705107.039
10 0 59583  64080.00000  0  -1634697.525   3952623.786   5600645.743
10 0 59583  64260.00000  0   -874767.319   3050394.601   6290200.029
10 0 59583  64440.00000  0   -108317.937   2016781.925   6748480.148
10 0 59583  64620.00000  0    633724.282    889771.526   6958713.400
10 0 59583  64800.00000  0   1322390.420   -288482.793   6913233.772
10 0 59583  64980.00000  0   1931806.373  -1473255.209   6613746.047
10 0 59583  65160.00000  0   2440173.214  -2618961.773   6071262.864
10 0 59583  65340.00000  0   2830559.515  -3680934.312   5305713.405
10 0 59583  65520.00000  0   3091476.380  -4617190.476   4345227.793
10 0 59583  65700.00000  0   3217215.099  -5390130.953   3225116.062
10 0 59583  65880.00000  0   3207933.370  -5968092.364   1986565.567
10 0 59583  66060.00000  0   3069482.247  -6326680.357    675101.316
10 0 59583  66240.00000  0   2812984.339  -6449814.107   -661127.121
10 0 59583  66420.00000  0   2454186.648  -6330434.590  -1973164.341
10 0 59583  66600.00000  0   2012616.639  -5970831.050  -3213091.762
10 0 59583  66780.00000  0   1510590.830  -5382577.528  -4335805.689
10 0 59583  66960.00000  0    972132.810  -4586085.343  -5300649.777
10 0 59583  67140.00000  0    421865.366  -3609817.377  -6072841.373
10 0 59583  67320.00000  0   -116076.781  -2489211.408  -6624654.957
10 0 59583  67500.00000  0   -619066.878  -1265363.753  -6936335.719
10 0 59583  67680.00000  0  -1066900.209     16472.160  -6996734.420
10 0 59583  67860.00000  0  -1442574.082   1308523.519  -6803660.291
10 0 59583  68040.00000  0  -1732913.735   2562223.637  -6363952.396
10 0 59583  68220.00000  0  -1929026.957   3729984.298  -5693274.354
10 0 59583  68400.00000  0  -2026576.912   4766973.016  -4815627.873
10 0 59583  68580.00000  0  -2025862.748   5632840.409  -3762578.818
10 0 59583  68760.00000  0  -1931700.552   6293330.244  -2572198.131
10 0 59583  68940.00000  0  -1753102.772   6721700.522  -1287742.308
10 0 59583  69120.00000  0  -1502768.427   6899886.888     43895.641
10 0 59583  69300.00000  0  -1196401.956   6819340.806   1373911.492
10 0 59583  69480.00000  0   -851890.735   6481482.769   2653432.418
10 0 59583  69660.00000  0   -488383.197   5897721.698   3835377.616
10 0 59583  69840.00000  0   -125320.839   5089056.687   4876243.001
10 0 59583  70020.00000  0    218526.266   4085276.185   5737746.523
10 0 59583  70200.00000  0    525973.631   2923794.233   6388245.777
10 0 59583  70380.00000  0    782235.676   1648196.934   6803891.269
10 0 59583  70560.00000  0    975603.926    306556.156   6969478.344
10 0 59583  70740.00000  0   1097963.842  -1050414.881   6878978.494
10 0 59583  70920.00000  0   1145130.666  -2371298.408   6535748.452
10 0 59583  71100.00000  0   1116992.450  -3605942.150   5952408.815
10 0 59583  71280.00000  0   1017454.597  -4707391.212   5150389.244
10 0 59583  71460.00000  0    854192.645  -5633704.799   4159155.902
10 0 59583  71640.00000  0    638224.191  -6349602.101   3015144.724
10 0 59583  71820.00000  0    383314.378  -6827863.517   1760416.175
10 0 59583  72000.00000  0    105241.580  -7050412.230    441083.356
10 0 59583  72180.00000  0   -179038.697  -7009027.784   -894427.523
10 0 59583  72360.00000  0   -452288.100  -6705640.084  -2197213.612
10 0 59583  72540.00000  0   -697884.770  -6152193.885  -3419728.699
10 0 59583  72720.00000  0   -900683.850  -5370109.106  -4517536.778
10 0 59583  72900.00000  0  -1047796.159  -4389367.409  -5450914.160
99
